OBJECT_NAME,OBJECT_ID,EPOCH,MEAN_MOTION,ECCENTRICITY,INCLINATION,RA_OF_ASC_NODE,ARG_OF_PERICENTER,MEAN_ANOMALY,EPHEMERIS_TYPE,CLASSIFICATION_TYPE,NORAD_CAT_ID,ELEMENT_SET_NO,REV_AT_EPOCH,BSTAR,MEAN_MOTION_DOT,MEAN_MOTION_DDOT
SYRACUSE 4B,2023-093B,2026-07-18T02:26:38.643360,1.00271740,.0000241,0.0189,56.3024,200.5939,69.2046,0,U,57214,999,727,0,-.62E-6,0
JUPITER 3 (ECHOSTAR 24),2023-108A,2026-07-18T10:35:45.690720,1.00270341,.00011742,0.0148,50.0823,69.0454,240.8647,0,U,57479,999,1095,0,-.157E-5,0
GALAXY 37 (G-37),2023-112A,2026-07-18T14:15:38.763360,1.00271956,.0002083,0.0164,59.8517,55.7407,267.7010,0,U,57493,999,1085,0,.41E-6,0
LUDI TANCE-4 01A,2023-120A,2026-07-18T10:13:52.148928,1.00275474,.0001579,15.0845,193.1922,12.4085,333.6523,0,U,57624,999,1085,0,-.185E-5,0
TJS-10,2023-169A,2026-07-18T19:51:04.082976,1.00273021,.0004093,2.6241,80.1128,113.4926,133.1890,0,U,58204,999,985,0,-.257E-5,0
ZHONGXING-6E,2023-172A,2026-07-19T01:44:58.919424,1.00270422,.0002891,0.0308,91.6743,19.5550,327.3908,0,U,58253,999,997,0,-.367E-5,0
YAOGAN-41,2023-197A,2026-07-18T17:13:57.825696,1.00275672,.0013951,3.0719,313.6471,200.6517,163.8357,0,U,58582,999,964,0,-.367E-5,0
OVZON-3,2024-003A,2026-07-18T10:05:15.475200,1.00272850,.00000403,0.0163,127.2521,123.2260,256.7399,0,U,58698,999,776,0,.44E-6,0
INSAT-3DS,2024-033A,2026-07-18T20:09:38.617920,1.00270803,.0001207,0.0809,264.1237,221.8902,195.0919,0,U,58990,999,4738,0,-.162E-5,0
MERAH PUTIH 2,2024-035A,2026-07-18T18:49:58.682208,1.00269971,.0001223,0.0161,65.5257,48.5090,218.0010,0,U,58995,999,890,0,0,0
TJS-11,2024-037A,2026-07-18T19:57:58.707072,1.00272441,.0001946,4.1580,327.4843,153.5816,227.6369,0,U,59020,999,890,0,-.368E-5,0
HULIANWAN GAOGUI-01 (HG-01),2024-040A,2026-07-17T23:41:56.940576,1.00273287,.00018582,0.0752,331.7087,71.6733,281.5272,0,U,59069,999,763,0,.147E-5,0
EUTELSAT 36D,2024-059A,2026-07-18T20:09:12.240000,1.00268904,.0000077,0.0217,66.0882,357.8232,210.9059,0,U,59346,999,846,0,0,0
PAKSAT-MM1,2024-104A,2026-07-18T20:53:38.837760,1.00272929,.0002127,0.0279,153.6203,305.4413,189.1928,0,U,59915,999,784,0,.147E-5,0
ASTRA 1P (SES-24),2024-115A,2026-07-18T16:44:19.446720,1.00266904,.0000749,0.0667,329.2025,223.3508,14.2209,0,U,60086,999,751,0,.112E-5,0
GOES 19,2024-119A,2026-07-18T15:05:38.631840,1.00270741,.000039,0.0180,140.2723,52.0769,255.2869,0,U,60133,999,727,0,-.255E-5,0
ZHONGXING-3A,2024-122A,2026-07-18T22:03:44.103744,1.00273255,.0001833,0.0292,137.1691,19.8104,212.2555,0,U,60179,999,762,0,-.32E-5,0
TURKSAT 6A,2024-127A,2026-07-18T20:15:34.630848,1.00271628,.0003094,0.0176,185.0579,340.9131,116.5358,0,U,60233,999,733,0,0,0
HULIANWAN GAOGUI-02 (HG-02),2024-135A,2026-07-19T03:38:12.432192,1.00271644,.0006169,0.0477,354.3317,15.7361,134.4616,0,U,60327,999,782,0,-.179E-5,0
ZHONGXING-4A,2024-151A,2026-07-18T19:21:38.644128,1.00273744,.0000142,1.2338,270.4513,31.8699,42.9023,0,U,60606,999,707,0,-.368E-5,0
HULIANWAN GAOGUI-03 (HG-03),2024-181A,2026-07-18T14:34:55.430400,1.00270617,.0001242,0.0522,356.0276,100.5593,341.4188,0,U,61503,999,714,0,-.248E-5,0
DSN-3 (KIRAMEKI-3),2024-198A,2026-07-18T17:19:57.252288,1.00271751,.0001079,0.0507,252.9410,245.5001,202.1306,0,U,61733,999,623,0,-.257E-5,0
KOREASAT 6A,2024-206A,2026-07-18T19:21:38.644128,1.00273681,.0000982,0.0226,102.7148,335.2057,265.0970,0,U,61910,999,615,0,-.368E-5,0
OPTUS-X (ADS-01),2024-212A,2026-07-18T17:23:26.915712,1.00271986,.0002335,0.0151,47.2028,90.9024,215.6786,0,U,62006,999,607,0,-.15E-5,0
GSAT-N2 (GSAT-20),2024-214A,2026-07-18T18:52:21.848736,1.00272008,.0002679,0.0641,260.8142,148.3507,238.4371,0,U,62028,999,621,0,-.26E-6,0
SXM-9,2024-234A,2026-07-18T13:51:38.716416,1.00270106,.0005056,0.0209,329.7241,352.2232,97.1686,0,U,62259,999,588,0,-.212E-5,0
TJS-12,2024-246A,2026-07-18T17:20:34.692000,1.00268453,.0001868,0.6037,302.5437,100.7998,299.8081,0,U,62374,999,588,0,-.238E-5,0
NUVIEW ALPHA,2024-252B,2026-07-18T13:51:38.716416,1.00273812,.0001251,0.0389,14.5477,78.7556,327.8878,0,U,62455,999,413,0,-.223E-5,0
AGILA,2024-252C,2026-07-18T17:22:12.037152,1.00272291,.0001418,0.0382,157.5755,322.3496,229.3122,0,U,62456,999,547,0,-.188E-5,0
NUVIEW BRAVO,2024-252D,2026-07-18T05:59:11.700672,1.00271450,.00016567,0.0687,163.4628,341.4509,157.8254,0,U,62457,999,410,0,-.223E-5,0
THURAYA-4,2025-001A,2026-07-18T20:18:46.202112,1.00273341,.0000055,0.0235,76.7559,170.2696,38.6229,0,U,62483,999,449,0,.133E-5,0
SHIJIAN-25 (SJ-25),2025-002A,2026-07-18T19:46:25.225248,1.00279843,.0050886,5.1867,60.9651,176.5823,122.7745,0,U,62485,999,567,0,-.358E-5,0
TJS-14,2025-017A,2026-07-18T21:59:12.043104,1.00269002,.0001945,0.7125,298.0585,306.1194,40.7105,0,U,62804,999,558,0,.109E-5,0
SPAINSAT NG I,2025-021A,2026-07-18T02:02:38.768352,1.00272377,.00002355,0.0198,42.6747,120.2218,192.6389,0,U,62852,999,429,0,.143E-5,0
QZS-6 (MICHIBIKI-6),2025-023A,2026-07-18T20:22:59.641824,1.00274631,.0001886,0.0111,34.9418,79.6341,218.2776,0,U,62876,999,526,0,-.24E-5,0
ZHONGXING-10R,2025-036A,2026-07-18T20:39:07.503264,1.00270701,.000433,0.0254,169.3532,337.2805,210.3174,0,U,63075,999,527,0,-.358E-5,0
TJS-15,2025-045A,2026-07-18T19:29:25.725120,1.00272854,.0003083,0.3094,85.6905,294.8019,302.8663,0,U,63157,999,507,0,-.272E-5,0
TIANLIAN 2-04,2025-062A,2026-07-18T22:04:27.657120,1.00272574,.0031434,4.2943,273.9819,9.2237,64.6501,0,U,63361,999,492,0,-.14E-5,0
TJS-16,2025-064A,2026-07-18T17:24:34.307712,1.00271244,.0002454,1.1777,81.2665,294.7569,342.2525,0,U,63397,999,470,0,-.112E-5,0
TJS-17,2025-073A,2026-07-18T19:48:12.890016,1.00271316,.0001008,1.1440,82.4266,314.2292,1.5118,0,U,63524,999,460,0,-.77E-6,0
TIANLIAN 2-05,2025-084A,2026-07-18T22:01:38.912736,1.00272973,.0002693,4.3718,279.4733,157.1365,210.8791,0,U,63662,999,470,0,.12E-5,0
TJS-19,2025-097A,2026-07-18T19:42:30.026304,1.00274857,.000411,3.2341,317.9697,251.3720,164.1101,0,U,63924,999,446,0,-.281E-5,0
CHINASAT 3B,2025-106A,2026-07-19T03:42:27.026208,1.00272149,.0004139,0.0330,186.5072,319.2493,14.1137,0,U,64062,999,438,0,-.5E-6,0
SXM-10,2025-122A,2026-07-18T14:07:38.839008,1.00272944,.0001835,0.0175,44.1254,322.9805,25.0263,0,U,64290,999,399,0,-.24E-6,0
COSMOS 2589,2025-131A,2026-07-18T19:39:31.426272,1.00268636,.0001222,0.0238,120.2702,64.5231,144.7079,0,U,64467,999,387,0,-.297E-5,0
CHINASAT 9C,2025-132A,2026-07-18T19:53:38.757120,1.00273450,.0003436,0.0144,91.6831,24.0208,211.5207,0,U,64470,999,446,0,-.254E-5,0
MTG-S1,2025-143A,2026-07-18T18:58:38.631360,1.00274651,.0003311,0.5824,345.9806,259.1431,335.7516,0,U,64723,999,373,0,-.13E-6,0
DROR 1,2025-148A,2026-07-18T18:58:38.631360,1.00272819,.0002009,0.0400,238.7118,162.2390,176.3054,0,U,64784,999,361,0,-.41E-6,0
SHIYAN-29,2025-196A,2026-07-17T23:08:38.701248,1.00275892,.00131541,28.8546,18.1469,177.5801,182.5349,0,U,65486,999,318,0,-.287E-5,0
NUSANTARA LIMA (NUSANTARA 5),2025-205A,2026-07-18T03:27:38.745216,1.00271133,.00004154,0.0142,96.0397,69.3252,295.3574,0,U,65588,999,303,0,0,0
TJS-20,2025-238A,2026-07-18T19:53:03.734880,1.00267905,.0003796,5.3991,299.4303,187.2836,170.6287,0,U,66142,999,264,0,.21E-6,0
CMS-03 (GSAT-7R),2025-249B,2026-07-18T20:17:38.575968,1.00269770,.0002427,0.0147,57.1133,61.1071,196.8325,0,U,66311,999,266,0,0,0
VIASAT-3 F2,2025-261A,2026-07-18T06:00:26.580960,1.00272057,.00005696,0.0351,206.6519,6.7692,93.7744,0,U,66454,999,310,0,-.242E-5,0
SHIJIAN-28 (SJ-28),2025-277A,2026-07-18T17:12:05.504832,1.00275211,.0001232,4.4579,271.6305,54.4497,345.2658,0,U,66549,999,247,0,-.365E-5,0
TJS-22,2025-290A,2026-07-12T19:22:52.255200,1.00269739,.0002691,1.4677,286.9097,318.9700,42.0235,0,U,66990,999,228,0,-.5E-7,0
TJS-23,2025-306A,2026-07-18T12:22:26.652864,1.00268121,.0004396,5.5184,297.3214,198.9022,161.2643,0,U,67226,999,220,0,.11E-6,0
FENGYUN 4C,2025-312A,2026-07-13T15:48:28.031328,1.00269440,.00006584,0.0385,175.3203,48.7481,77.5697,0,U,67246,999,204,0,-.328E-5,0
SHIJIAN-29A (SJ-29A),2025-315A,2026-07-18T19:11:33.457056,1.00272987,.0004975,3.4765,94.3495,50.9719,152.3378,0,U,67302,999,193,0,-.76E-6,0
SHIJIAN-29B (SJ-29B),2025-315C,2026-07-18T18:59:51.966816,1.00273256,.0005163,3.4754,94.3427,54.1297,146.3071,0,U,67403,999,200,0,-.76E-6,0
ELEKTRO-L 5,2026-028A,2026-07-17T23:12:29.470464,1.00271857,.00020771,0.2040,326.3173,176.0737,217.6039,0,U,67756,999,155,0,-.106E-5,0
JAM-E JAM 1,2026-028B,2026-07-18T20:53:38.837760,1.00265995,.0000713,0.1999,314.7343,262.2428,67.1122,0,U,67757,999,143,0,.149E-5,0
ECHOSTAR 25,2026-045A,2026-07-18T13:59:38.658048,1.00271629,.0001758,0.0186,52.0699,56.8523,287.3607,0,U,68126,999,130,0,-.64E-6,0
TJS-24,2026-116A,2026-07-18T20:22:59.640096,1.00273817,.0000335,0.0866,94.3365,151.8264,86.5180,0,U,69235,999,54,0,-.238E-5,0
